<?xml version="1.0" encoding="UTF-8"?>
<kml xmlns="http://www.opengis.net/kml/2.2"><Document><name>Dhar initial KML with elevations and new basin</name>
<Style id="land"><LineStyle><color>ff000000</color><width>2</width></LineStyle><PolyStyle><color>16000000</color></PolyStyle></Style><Style id="sector"><LineStyle><color>ff00ffff</color><width>2</width></LineStyle><PolyStyle><color>1400ffff</color></PolyStyle></Style><Style id="basin"><LineStyle><color>ffff0000</color><width>5</width></LineStyle><PolyStyle><color>550000ff</color></PolyStyle></Style><Style id="water"><IconStyle><color>ffff00ff</color><scale>1.1</scale></IconStyle></Style><Style id="ref"><LineStyle><color>ff000000</color><width>2</width></LineStyle></Style>
<Placemark><name>P1</name><styleUrl>#land</styleUrl><Polygon><outerBoundaryIs><LinearRing><coordinates>-4.5843705,33.8452043,971 -4.5844248,33.8453557,971 -4.5844415,33.8454727,971 -4.5843932,33.8455986,971 -4.5843932,33.8459283,956 -4.5843503,33.8462045,956 -4.5846507,33.8461688,956 -4.5846454,33.8464384,956 -4.5845971,33.8466589,938 -4.5845823,33.8470288,938 -4.584758,33.8471223,938 -4.5849511,33.8471668,938 -4.5851282,33.8472582,937 -4.5851563,33.8473189,937 -4.585332,33.8473996,937 -4.5855305,33.8473824,937 -4.58567,33.8472916,937 -4.5858028,33.8476369,910 -4.587518,33.8467715,905 -4.5877835,33.8444312,924 -4.5881148,33.8444078,924 -4.5881288,33.844385,924 -4.588218,33.8443755,924 -4.5882985,33.8443956,924 -4.588159,33.8430679,948 -4.5867428,33.8430278,963 -4.5866847,33.8436423,955 -4.5866517,33.8438108,974 -4.5865551,33.843969,974 -4.5864102,33.8441015,974 -4.5867428,33.8443065,942 -4.5866141,33.8447788,965 -4.586303,33.8450639,957 -4.5861528,33.8451798,957 -4.5862386,33.84526,957 -4.5858082,33.8455451,967 -4.585672,33.8453958,967 -4.5855413,33.8452499,967 -4.5852355,33.8454131,967 -4.5848292,33.8455796,971 -4.5847601,33.8454465,971 -4.5846011,33.8450873,971 -4.5843705,33.8452043,971</coordinates></LinearRing></outerBoundaryIs></Polygon></Placemark>
<Placemark><name>Point D&apos;eau — 957m</name><styleUrl>#water</styleUrl><Point><coordinates>-4.5860916,33.8457367,957</coordinates></Point></Placemark>
<Placemark><name>S1</name><styleUrl>#sector</styleUrl><Polygon><outerBoundaryIs><LinearRing><coordinates>-4.5858529,33.8462577,944 -4.585693,33.8456395,967 -4.5858082,33.8455451,967 -4.5855413,33.8452499,967 -4.5848292,33.8455796,971 -4.5844038,33.8457503,971 -4.5843503,33.8462045,956 -4.5846507,33.8461688,956 -4.5858529,33.8462577,944</coordinates></LinearRing></outerBoundaryIs></Polygon></Placemark>
<Placemark><name>S2</name><styleUrl>#sector</styleUrl><Polygon><outerBoundaryIs><LinearRing><coordinates>-4.586017,33.8468901,923 -4.5858529,33.8462577,944 -4.5846507,33.8461688,956 -4.5845823,33.8470288,938 -4.586017,33.8468901,923</coordinates></LinearRing></outerBoundaryIs></Polygon></Placemark>
<Placemark><name>S3</name><styleUrl>#sector</styleUrl><Polygon><outerBoundaryIs><LinearRing><coordinates>-4.587518,33.8467715,905 -4.5845823,33.8470288,938 -4.5851282,33.8472582,937 -4.5851563,33.8473189,937 -4.585332,33.8473996,937 -4.5855305,33.8473824,937 -4.58567,33.8472916,937 -4.5858028,33.8476369,910 -4.587518,33.8467715,905</coordinates></LinearRing></outerBoundaryIs></Polygon></Placemark>
<Placemark><name>S4</name><styleUrl>#sector</styleUrl><Polygon><outerBoundaryIs><LinearRing><coordinates>-4.587518,33.8467715,905 -4.5876081,33.8460082,910 -4.5858529,33.8462577,944 -4.586017,33.8468901,923 -4.587518,33.8467715,905</coordinates></LinearRing></outerBoundaryIs></Polygon></Placemark>
<Placemark><name>S5</name><styleUrl>#sector</styleUrl><Polygon><outerBoundaryIs><LinearRing><coordinates>-4.5858529,33.8462577,944 -4.5876081,33.8460082,910 -4.5862386,33.84526,957 -4.585693,33.8456395,967 -4.5858529,33.8462577,944</coordinates></LinearRing></outerBoundaryIs></Polygon></Placemark>
<Placemark><name>S6</name><styleUrl>#sector</styleUrl><Polygon><outerBoundaryIs><LinearRing><coordinates>-4.5876081,33.8460082,910 -4.5876923,33.8449525,924 -4.5866141,33.8447788,965 -4.5861528,33.8451798,957 -4.5876081,33.8460082,910</coordinates></LinearRing></outerBoundaryIs></Polygon></Placemark>
<Placemark><name>S7</name><styleUrl>#sector</styleUrl><Polygon><outerBoundaryIs><LinearRing><coordinates>-4.5876923,33.8449525,924 -4.5878211,33.8444412,924 -4.5882985,33.8443956,924 -4.5882298,33.8438232,937 -4.5866517,33.8438108,974 -4.5864102,33.8441015,974 -4.5867428,33.8443065,942 -4.5866141,33.8447788,965 -4.5876923,33.8449525,924</coordinates></LinearRing></outerBoundaryIs></Polygon></Placemark>
<Placemark><name>S8</name><styleUrl>#sector</styleUrl><Polygon><outerBoundaryIs><LinearRing><coordinates>-4.588159,33.8430679,948 -4.5867428,33.8430278,963 -4.5866517,33.8438108,974 -4.5882298,33.8438232,937 -4.588159,33.8430679,948</coordinates></LinearRing></outerBoundaryIs></Polygon></Placemark>
<Placemark><name>NEW BASIN — 967m</name><description>Recommended basin location, 4-side footprint; approximately 60m from water point and 10m above it.</description><styleUrl>#basin</styleUrl><Polygon><altitudeMode>absolute</altitudeMode><outerBoundaryIs><LinearRing><coordinates>-4.5856651,33.8455339,967 -4.585553,33.8453963,967 -4.5853497,33.845497,967 -4.5854484,33.8456377,967 -4.5856651,33.8455339,967</coordinates></LinearRing></outerBoundaryIs></Polygon></Placemark>
<Placemark><name>R1</name><styleUrl>#ref</styleUrl><LineString><coordinates>-4.587518,33.8467715,905 -4.5858028,33.8476369,910 -4.58567,33.8472916,937 -4.585332,33.8473996,937 -4.5851282,33.8472582,937 -4.584758,33.8471223,938 -4.5845823,33.8470288,938 -4.5846507,33.8461688,956 -4.5843503,33.8462045,956 -4.5844485,33.8457179,971 -4.5848292,33.8455796,971 -4.5851694,33.8454756,967 -4.5855413,33.8452499,967 -4.5858082,33.8455451,967 -4.5862386,33.84526,957 -4.5861528,33.8451798,957 -4.5866141,33.8447788,965</coordinates></LineString></Placemark>
<Placemark><name>Tx</name><styleUrl>#ref</styleUrl><LineString><coordinates>-4.5845823,33.8470288,938 -4.587518,33.8467715,905</coordinates></LineString></Placemark>
<Placemark><name>Line 13</name><styleUrl>#ref</styleUrl><LineString><coordinates>-4.5860277,33.8469302,923 -4.585693,33.8456395,967</coordinates></LineString></Placemark>
<Placemark><name>T1 — 967m</name><Point><coordinates>-4.5855298,33.8452955,967</coordinates></Point></Placemark></Document></kml>