<?xml version="1.0" encoding="UTF-8"?>
<kml xmlns="http://www.opengis.net/kml/2.2" xmlns:gx="http://www.google.com/kml/ext/2.2" xmlns:kml="http://www.opengis.net/kml/2.2" xmlns:atom="http://www.w3.org/2005/Atom">
<Document>
	<name>Dhar initial KML with elevations and new basin</name>
	<open>1</open>
	<atom:link rel="app" href="https://www.google.com/earth/about/versions/#earth-pro" title="Google Earth Pro 7.3.7.1327"></atom:link>
	<Style id="basin">
		<LineStyle>
			<color>ffff0000</color>
			<width>5</width>
		</LineStyle>
		<PolyStyle>
			<color>550000ff</color>
		</PolyStyle>
	</Style>
	<Style id="land">
		<LineStyle>
			<color>ff000000</color>
			<width>2</width>
		</LineStyle>
		<PolyStyle>
			<color>16000000</color>
		</PolyStyle>
	</Style>
	<Style id="ref">
		<LineStyle>
			<color>ff000000</color>
			<width>2</width>
		</LineStyle>
	</Style>
	<Style id="sector">
		<LineStyle>
			<color>ff00ffff</color>
			<width>2</width>
		</LineStyle>
		<PolyStyle>
			<color>1400ffff</color>
		</PolyStyle>
	</Style>
	<Style id="water">
		<IconStyle>
			<color>ffff00ff</color>
			<scale>1.1</scale>
		</IconStyle>
	</Style>
	<Style id="zone">
		<LabelStyle>
			<color>ff0000ff</color>
			<scale>1.3</scale>
		</LabelStyle>
		<LineStyle>
			<color>ff00a5ff</color>
			<width>2</width>
		</LineStyle>
		<PolyStyle>
			<color>2200a5ff</color>
		</PolyStyle>
	</Style>
	<Placemark>
		<name>P1</name>
		<styleUrl>#land</styleUrl>
		<Polygon>
			<outerBoundaryIs>
				<LinearRing>
					<coordinates>
						-4.5843705,33.8452043,971 -4.5844248,33.8453557,971 -4.5844415,33.8454727,971 -4.5843932,33.8455986,971 -4.5843932,33.8459283,956 -4.5843503,33.8462045,956 -4.5846507,33.8461688,956 -4.5846454,33.8464384,956 -4.5845971,33.8466589,937.9999999999999 -4.5845823,33.8470288,937.9999999999999 -4.584758,33.8471223,937.9999999999999 -4.5849511,33.8471668,937.9999999999999 -4.5851282,33.8472582,937 -4.5851563,33.8473189,937 -4.585332,33.8473996,937 -4.5855305,33.8473824,937 -4.58567,33.8472916,937 -4.5858028,33.8476369,909.9999999999999 -4.587518,33.8467715,905 -4.5877835,33.8444312,924 -4.5881148,33.8444078,924 -4.5881288,33.844385,924 -4.588218,33.8443755,924 -4.5882985,33.8443956,924 -4.588159,33.8430679,948 -4.5867428,33.8430278,963 -4.5866847,33.8436423,955 -4.5866517,33.8438108,973.9999999999999 -4.5865551,33.843969,973.9999999999999 -4.5864102,33.8441015,973.9999999999999 -4.5867428,33.8443065,941.9999999999999 -4.5866141,33.8447788,965 -4.586303,33.8450639,957 -4.5861528,33.8451798,957 -4.5862386,33.84526,957 -4.5858082,33.8455451,967 -4.585672,33.8453958,967 -4.5855413,33.8452499,967 -4.5852355,33.8454131,967 -4.5848292,33.8455796,971 -4.5847601,33.8454465,971 -4.5846011,33.8450873,971 -4.5843705,33.8452043,971 
					</coordinates>
				</LinearRing>
			</outerBoundaryIs>
		</Polygon>
	</Placemark>
	<Placemark>
		<name>R1</name>
		<styleUrl>#ref</styleUrl>
		<LineString>
			<coordinates>
				-4.587518,33.8467715,905 -4.5858028,33.8476369,909.9999999999999 -4.58567,33.8472916,937 -4.585332,33.8473996,937 -4.5851282,33.8472582,937 -4.584758,33.8471223,937.9999999999999 -4.5845823,33.8470288,937.9999999999999 -4.5846507,33.8461688,956 -4.5843503,33.8462045,956 -4.5844485,33.8457179,971 -4.5848292,33.8455796,971 -4.5851694,33.8454756,967 -4.5855413,33.8452499,967 -4.5858082,33.8455451,967 -4.5862386,33.84526,957 -4.5861528,33.8451798,957 -4.5866141,33.8447788,965 
			</coordinates>
		</LineString>
	</Placemark>
	<Folder>
		<name>Zones — equal area</name>
		<Placemark>
			<name>S1-Z1 (0.681 ha)</name>
			<description>Area = 0.6812 ha</description>
			<styleUrl>#zone</styleUrl>
			<Polygon>
				<outerBoundaryIs>
					<LinearRing>
						<coordinates>
							-4.5858082,33.8455451,967 -4.585693,33.8456395,967 -4.5858529,33.8462577,944 -4.5846507,33.8461688,956 -4.5843503,33.8462045,956 -4.5843836,33.8459214,971 -4.5857962,33.8455318,967 -4.5858082,33.8455451,967 
						</coordinates>
					</LinearRing>
				</outerBoundaryIs>
			</Polygon>
		</Placemark>
		<Placemark>
			<name>S1-Z2 (0.341 ha)</name>
			<description>Area = 0.3406 ha</description>
			<styleUrl>#zone</styleUrl>
			<Polygon>
				<outerBoundaryIs>
					<LinearRing>
						<coordinates>
							-4.5858082,33.8455451,967 -4.585693,33.8456395,967 -4.5857328,33.8457932,967 -4.584354,33.8461735,956 -4.5843836,33.8459214,971 -4.5857962,33.8455318,967 -4.5858082,33.8455451,967 
						</coordinates>
					</LinearRing>
				</outerBoundaryIs>
			</Polygon>
		</Placemark>
		<Placemark>
			<name>S1-Z3 (0.681 ha)</name>
			<description>Area = 0.6812 ha</description>
			<styleUrl>#zone</styleUrl>
			<Polygon>
				<outerBoundaryIs>
					<LinearRing>
						<coordinates>
							-4.5844038,33.8457503,971 -4.5848292,33.8455796,971 -4.5855413,33.8452499,967 -4.5858082,33.8455451,967 -4.585693,33.8456395,967 -4.5857328,33.8457932,967 -4.584354,33.8461735,956 -4.5844038,33.8457503,971 
						</coordinates>
					</LinearRing>
				</outerBoundaryIs>
			</Polygon>
		</Placemark>
		<Placemark>
			<name>S2-Z1 (0.674 ha)</name>
			<description>Area = 0.6743 ha</description>
			<styleUrl>#zone</styleUrl>
			<Polygon>
				<outerBoundaryIs>
					<LinearRing>
						<coordinates>
							-4.5858529,33.8462577,944 -4.586017,33.8468901,923.0000000000001 -4.5845823,33.8470288,937.9999999999999 -4.5846038,33.8467585,937.9999999999999 -4.5857577,33.8462507,944 -4.5858529,33.8462577,944 
						</coordinates>
					</LinearRing>
				</outerBoundaryIs>
			</Polygon>
		</Placemark>
		<Placemark>
			<name>S2-Z2 (0.337 ha)</name>
			<description>Area = 0.3372 ha</description>
			<styleUrl>#zone</styleUrl>
			<Polygon>
				<outerBoundaryIs>
					<LinearRing>
						<coordinates>
							-4.5858529,33.8462577,944 -4.5859017,33.8464457,944 -4.5845825,33.8470264,937.9999999999999 -4.5846038,33.8467585,937.9999999999999 -4.5857577,33.8462507,944 -4.5858529,33.8462577,944 
						</coordinates>
					</LinearRing>
				</outerBoundaryIs>
			</Polygon>
		</Placemark>
		<Placemark>
			<name>S2-Z3 (0.674 ha)</name>
			<description>Area = 0.6743 ha</description>
			<styleUrl>#zone</styleUrl>
			<Polygon>
				<outerBoundaryIs>
					<LinearRing>
						<coordinates>
							-4.5846507,33.8461688,956 -4.5858529,33.8462577,944 -4.5859017,33.8464457,944 -4.5845825,33.8470264,937.9999999999999 -4.5846507,33.8461688,956 
						</coordinates>
					</LinearRing>
				</outerBoundaryIs>
			</Polygon>
		</Placemark>
		<Placemark>
			<name>S3-Z1 (0.670 ha)</name>
			<description>Area = 0.6704 ha</description>
			<styleUrl>#zone</styleUrl>
			<Polygon>
				<outerBoundaryIs>
					<LinearRing>
						<coordinates>
							-4.587518,33.8467715,905 -4.5858028,33.8476369,909.9999999999999 -4.58567,33.8472916,937 -4.5856013,33.8473363,937 -4.5858918,33.846914,937 -4.587518,33.8467715,905 
						</coordinates>
					</LinearRing>
				</outerBoundaryIs>
			</Polygon>
		</Placemark>
		<Placemark>
			<name>S3-Z2 (0.335 ha)</name>
			<description>Area = 0.3352 ha</description>
			<styleUrl>#zone</styleUrl>
			<Polygon>
				<outerBoundaryIs>
					<LinearRing>
						<coordinates>
							-4.5864749,33.8468629,937 -4.5860168,33.8475289,909.9999999999999 -4.5858028,33.8476369,909.9999999999999 -4.58567,33.8472916,937 -4.5856013,33.8473363,937 -4.5858918,33.846914,937 -4.5864749,33.8468629,937 
						</coordinates>
					</LinearRing>
				</outerBoundaryIs>
			</Polygon>
		</Placemark>
		<Placemark>
			<name>S3-Z3 (0.670 ha)</name>
			<description>Area = 0.6704 ha</description>
			<styleUrl>#zone</styleUrl>
			<Polygon>
				<outerBoundaryIs>
					<LinearRing>
						<coordinates>
							-4.5858028,33.8476369,909.9999999999999 -4.58567,33.8472916,937 -4.5855305,33.8473824,937 -4.585332,33.8473996,937 -4.5851563,33.8473189,937 -4.5851282,33.8472582,937 -4.5845823,33.8470288,937.9999999999999 -4.5864749,33.8468629,937 -4.5860168,33.8475289,909.9999999999999 -4.5858028,33.8476369,909.9999999999999 
						</coordinates>
					</LinearRing>
				</outerBoundaryIs>
			</Polygon>
		</Placemark>
		<Placemark>
			<name>S4-Z1 (0.782 ha)</name>
			<description>Area = 0.7825 ha</description>
			<styleUrl>#zone</styleUrl>
			<Polygon>
				<outerBoundaryIs>
					<LinearRing>
						<coordinates>
							-4.5876081,33.8460082,909.9999999999999 -4.587518,33.8467715,905 -4.5861541,33.8468793,923.0000000000001 -4.5868666,33.8461136,909.9999999999999 -4.5876081,33.8460082,909.9999999999999 
						</coordinates>
					</LinearRing>
				</outerBoundaryIs>
			</Polygon>
		</Placemark>
		<Placemark>
			<name>S4-Z2 (0.391 ha)</name>
			<description>Area = 0.3912 ha</description>
			<styleUrl>#zone</styleUrl>
			<Polygon>
				<outerBoundaryIs>
					<LinearRing>
						<coordinates>
							-4.5874262,33.8460341,909.9999999999999 -4.5866781,33.8468379,923.0000000000001 -4.5861541,33.8468793,923.0000000000001 -4.5868666,33.8461136,909.9999999999999 -4.5874262,33.8460341,909.9999999999999 
						</coordinates>
					</LinearRing>
				</outerBoundaryIs>
			</Polygon>
		</Placemark>
		<Placemark>
			<name>S4-Z3 (0.782 ha)</name>
			<description>Area = 0.7825 ha</description>
			<styleUrl>#zone</styleUrl>
			<Polygon>
				<outerBoundaryIs>
					<LinearRing>
						<coordinates>
							-4.586017,33.8468901,923.0000000000001 -4.5858529,33.8462577,944 -4.5874262,33.8460341,909.9999999999999 -4.5866781,33.8468379,923.0000000000001 -4.586017,33.8468901,923.0000000000001 
						</coordinates>
					</LinearRing>
				</outerBoundaryIs>
			</Polygon>
		</Placemark>
		<Placemark>
			<name>S5-Z1 (0.703 ha)</name>
			<description>Area = 0.7027 ha</description>
			<styleUrl>#zone</styleUrl>
			<Polygon>
				<outerBoundaryIs>
					<LinearRing>
						<coordinates>
							-4.5876081,33.8460082,909.9999999999999 -4.5858529,33.8462577,944 -4.5858311,33.8461734,944 -4.5865384,33.8454238,957 -4.5876081,33.8460082,909.9999999999999 
						</coordinates>
					</LinearRing>
				</outerBoundaryIs>
			</Polygon>
		</Placemark>
		<Placemark>
			<name>S5-Z2 (0.351 ha)</name>
			<description>Area = 0.3514 ha</description>
			<styleUrl>#zone</styleUrl>
			<Polygon>
				<outerBoundaryIs>
					<LinearRing>
						<coordinates>
							-4.5858529,33.8462577,944 -4.5858311,33.8461734,944 -4.5865384,33.8454238,957 -4.5868545,33.8455965,957 -4.5862891,33.8461957,944 -4.5858529,33.8462577,944 
						</coordinates>
					</LinearRing>
				</outerBoundaryIs>
			</Polygon>
		</Placemark>
		<Placemark>
			<name>S5-Z3 (0.703 ha)</name>
			<description>Area = 0.7027 ha</description>
			<styleUrl>#zone</styleUrl>
			<Polygon>
				<outerBoundaryIs>
					<LinearRing>
						<coordinates>
							-4.5858529,33.8462577,944 -4.585693,33.8456395,967 -4.5862386,33.84526,957 -4.5868545,33.8455965,957 -4.5862891,33.8461957,944 -4.5858529,33.8462577,944 
						</coordinates>
					</LinearRing>
				</outerBoundaryIs>
			</Polygon>
		</Placemark>
		<Placemark>
			<name>S6-Z1 (0.725 ha)</name>
			<description>Area = 0.7252 ha</description>
			<styleUrl>#zone</styleUrl>
			<Polygon>
				<outerBoundaryIs>
					<LinearRing>
						<coordinates>
							-4.5876923,33.8449525,924 -4.5876081,33.8460082,909.9999999999999 -4.5866573,33.845467,957 -4.5871593,33.8448666,924 -4.5876923,33.8449525,924 
						</coordinates>
					</LinearRing>
				</outerBoundaryIs>
			</Polygon>
		</Placemark>
		<Placemark>
			<name>S6-Z2 (0.363 ha)</name>
			<description>Area = 0.3626 ha</description>
			<styleUrl>#zone</styleUrl>
			<Polygon>
				<outerBoundaryIs>
					<LinearRing>
						<coordinates>
							-4.5876272,33.844942,924 -4.587017,33.8456718,909.9999999999999 -4.5866573,33.845467,957 -4.5871593,33.8448666,924 -4.5876272,33.844942,924 
						</coordinates>
					</LinearRing>
				</outerBoundaryIs>
			</Polygon>
		</Placemark>
		<Placemark>
			<name>S6-Z3 (0.725 ha)</name>
			<description>Area = 0.7252 ha</description>
			<styleUrl>#zone</styleUrl>
			<Polygon>
				<outerBoundaryIs>
					<LinearRing>
						<coordinates>
							-4.5861528,33.8451798,957 -4.5866141,33.8447788,965 -4.5876272,33.844942,924 -4.587017,33.8456718,909.9999999999999 -4.5861528,33.8451798,957 
						</coordinates>
					</LinearRing>
				</outerBoundaryIs>
			</Polygon>
		</Placemark>
		<Placemark>
			<name>S7-Z1 (1.036 ha)</name>
			<description>Area = 1.0356 ha</description>
			<styleUrl>#zone</styleUrl>
			<Polygon>
				<outerBoundaryIs>
					<LinearRing>
						<coordinates>
							-4.5882298,33.8438232,937 -4.5882985,33.8443956,924 -4.5878211,33.8444412,924 -4.5876923,33.8449525,924 -4.5867408,33.8447992,965 -4.5875079,33.8438175,937 -4.5882298,33.8438232,937 
						</coordinates>
					</LinearRing>
				</outerBoundaryIs>
			</Polygon>
		</Placemark>
		<Placemark>
			<name>S7-Z2 (0.518 ha)</name>
			<description>Area = 0.5178 ha</description>
			<styleUrl>#zone</styleUrl>
			<Polygon>
				<outerBoundaryIs>
					<LinearRing>
						<coordinates>
							-4.5880015,33.8438214,937 -4.587182,33.8448703,924 -4.5867408,33.8447992,965 -4.5875079,33.8438175,937 -4.5880015,33.8438214,937 
						</coordinates>
					</LinearRing>
				</outerBoundaryIs>
			</Polygon>
		</Placemark>
		<Placemark>
			<name>S7-Z3 (1.036 ha)</name>
			<description>Area = 1.0356 ha</description>
			<styleUrl>#zone</styleUrl>
			<Polygon>
				<outerBoundaryIs>
					<LinearRing>
						<coordinates>
							-4.5866141,33.8447788,965 -4.5867428,33.8443065,941.9999999999999 -4.5864102,33.8441015,973.9999999999999 -4.5866517,33.8438108,973.9999999999999 -4.5880015,33.8438214,937 -4.587182,33.8448703,924 -4.5866141,33.8447788,965 
						</coordinates>
					</LinearRing>
				</outerBoundaryIs>
			</Polygon>
		</Placemark>
		<Placemark>
			<name>S8-Z1 (0.789 ha)</name>
			<description>Area = 0.7885 ha</description>
			<styleUrl>#zone</styleUrl>
			<Polygon>
				<outerBoundaryIs>
					<LinearRing>
						<coordinates>
							-4.588159,33.8430679,948 -4.5882298,33.8438232,937 -4.58719,33.843815,973.9999999999999 -4.5871895,33.8430404,963 -4.588159,33.8430679,948 
						</coordinates>
					</LinearRing>
				</outerBoundaryIs>
			</Polygon>
		</Placemark>
		<Placemark>
			<name>S8-Z2 (0.394 ha)</name>
			<description>Area = 0.3943 ha</description>
			<styleUrl>#zone</styleUrl>
			<Polygon>
				<outerBoundaryIs>
					<LinearRing>
						<coordinates>
							-4.5876884,33.8430546,948 -4.587689,33.843819,937 -4.58719,33.843815,973.9999999999999 -4.5871895,33.8430404,963 -4.5876884,33.8430546,948 
						</coordinates>
					</LinearRing>
				</outerBoundaryIs>
			</Polygon>
		</Placemark>
		<Placemark>
			<name>S8-Z3 (0.789 ha)</name>
			<description>Area = 0.7885 ha</description>
			<styleUrl>#zone</styleUrl>
			<Polygon>
				<outerBoundaryIs>
					<LinearRing>
						<coordinates>
							-4.5866517,33.8438108,973.9999999999999 -4.5867428,33.8430278,963 -4.5876884,33.8430546,948 -4.587689,33.843819,937 -4.5866517,33.8438108,973.9999999999999 
						</coordinates>
					</LinearRing>
				</outerBoundaryIs>
			</Polygon>
		</Placemark>
	</Folder>
	<Folder>
		<name>Sectors</name>
		<Placemark>
			<name>S1</name>
			<styleUrl>#sector</styleUrl>
			<Polygon>
				<outerBoundaryIs>
					<LinearRing>
						<coordinates>
							-4.5858529,33.8462577,944 -4.585693,33.8456395,967 -4.5858082,33.8455451,967 -4.5855413,33.8452499,967 -4.5848292,33.8455796,971 -4.5844038,33.8457503,971 -4.5843503,33.8462045,956 -4.5846507,33.8461688,956 -4.5858529,33.8462577,944 
						</coordinates>
					</LinearRing>
				</outerBoundaryIs>
			</Polygon>
		</Placemark>
		<Placemark>
			<name>S2</name>
			<styleUrl>#sector</styleUrl>
			<Polygon>
				<outerBoundaryIs>
					<LinearRing>
						<coordinates>
							-4.586017,33.8468901,923.0000000000001 -4.5858529,33.8462577,944 -4.5846507,33.8461688,956 -4.5845823,33.8470288,937.9999999999999 -4.586017,33.8468901,923.0000000000001 
						</coordinates>
					</LinearRing>
				</outerBoundaryIs>
			</Polygon>
		</Placemark>
		<Placemark>
			<name>S3</name>
			<styleUrl>#sector</styleUrl>
			<Polygon>
				<outerBoundaryIs>
					<LinearRing>
						<coordinates>
							-4.587518,33.8467715,905 -4.5845823,33.8470288,937.9999999999999 -4.5851282,33.8472582,937 -4.5851563,33.8473189,937 -4.585332,33.8473996,937 -4.5855305,33.8473824,937 -4.58567,33.8472916,937 -4.5858028,33.8476369,909.9999999999999 -4.587518,33.8467715,905 
						</coordinates>
					</LinearRing>
				</outerBoundaryIs>
			</Polygon>
		</Placemark>
		<Placemark>
			<name>S4</name>
			<styleUrl>#sector</styleUrl>
			<Polygon>
				<outerBoundaryIs>
					<LinearRing>
						<coordinates>
							-4.587518,33.8467715,905 -4.5876081,33.8460082,909.9999999999999 -4.5858529,33.8462577,944 -4.586017,33.8468901,923.0000000000001 -4.587518,33.8467715,905 
						</coordinates>
					</LinearRing>
				</outerBoundaryIs>
			</Polygon>
		</Placemark>
		<Placemark>
			<name>S5</name>
			<styleUrl>#sector</styleUrl>
			<Polygon>
				<outerBoundaryIs>
					<LinearRing>
						<coordinates>
							-4.5858529,33.8462577,944 -4.5876081,33.8460082,909.9999999999999 -4.5862386,33.84526,957 -4.585693,33.8456395,967 -4.5858529,33.8462577,944 
						</coordinates>
					</LinearRing>
				</outerBoundaryIs>
			</Polygon>
		</Placemark>
		<Placemark>
			<name>S6</name>
			<styleUrl>#sector</styleUrl>
			<Polygon>
				<outerBoundaryIs>
					<LinearRing>
						<coordinates>
							-4.5876081,33.8460082,909.9999999999999 -4.5876923,33.8449525,924 -4.5866141,33.8447788,965 -4.5861528,33.8451798,957 -4.5876081,33.8460082,909.9999999999999 
						</coordinates>
					</LinearRing>
				</outerBoundaryIs>
			</Polygon>
		</Placemark>
		<Placemark>
			<name>S7</name>
			<styleUrl>#sector</styleUrl>
			<Polygon>
				<outerBoundaryIs>
					<LinearRing>
						<coordinates>
							-4.5876923,33.8449525,924 -4.5878211,33.8444412,924 -4.5882985,33.8443956,924 -4.5882298,33.8438232,937 -4.5866517,33.8438108,973.9999999999999 -4.5864102,33.8441015,973.9999999999999 -4.5867428,33.8443065,941.9999999999999 -4.5866141,33.8447788,965 -4.5876923,33.8449525,924 
						</coordinates>
					</LinearRing>
				</outerBoundaryIs>
			</Polygon>
		</Placemark>
		<Placemark>
			<name>S8</name>
			<styleUrl>#sector</styleUrl>
			<Polygon>
				<outerBoundaryIs>
					<LinearRing>
						<coordinates>
							-4.588159,33.8430679,948 -4.5867428,33.8430278,963 -4.5866517,33.8438108,973.9999999999999 -4.5882298,33.8438232,937 -4.588159,33.8430679,948 
						</coordinates>
					</LinearRing>
				</outerBoundaryIs>
			</Polygon>
		</Placemark>
	</Folder>
	<Folder>
		<name>Water</name>
		<Placemark>
			<name>Point D&apos;eau — 957m</name>
			<styleUrl>#water</styleUrl>
			<Point>
				<coordinates>-4.5860916,33.8457367,957</coordinates>
			</Point>
		</Placemark>
		<Placemark>
			<name>NEW BASIN — 967m</name>
			<description>Recommended basin location, 4-side footprint; approximately 60m from water point and 10m above it.</description>
			<styleUrl>#basin</styleUrl>
			<Polygon>
				<altitudeMode>absolute</altitudeMode>
				<outerBoundaryIs>
					<LinearRing>
						<coordinates>
							-4.5856651,33.8455339,967 -4.585553,33.8453963,967 -4.5853497,33.845497,967 -4.5854484,33.8456377,967 -4.5856651,33.8455339,967 
						</coordinates>
					</LinearRing>
				</outerBoundaryIs>
			</Polygon>
		</Placemark>
	</Folder>
</Document>
</kml>
