{
  "type": "FeatureCollection",
  "features": [
    {
      "type": "Feature",
      "properties": {
        "name": "P1",
        "collection": "property"
      },
      "geometry": {
        "type": "Polygon",
        "coordinates": [
          [
            [
              -4.5843705,
              33.8452043
            ],
            [
              -4.5844248,
              33.8453557
            ],
            [
              -4.5844415,
              33.8454727
            ],
            [
              -4.5843932,
              33.8455986
            ],
            [
              -4.5843932,
              33.8459283
            ],
            [
              -4.5843503,
              33.8462045
            ],
            [
              -4.5846507,
              33.8461688
            ],
            [
              -4.5846454,
              33.8464384
            ],
            [
              -4.5845971,
              33.8466589
            ],
            [
              -4.5845823,
              33.8470288
            ],
            [
              -4.584758,
              33.8471223
            ],
            [
              -4.5849511,
              33.8471668
            ],
            [
              -4.5851282,
              33.8472582
            ],
            [
              -4.5851563,
              33.8473189
            ],
            [
              -4.585332,
              33.8473996
            ],
            [
              -4.5855305,
              33.8473824
            ],
            [
              -4.58567,
              33.8472916
            ],
            [
              -4.5858028,
              33.8476369
            ],
            [
              -4.587518,
              33.8467715
            ],
            [
              -4.5877835,
              33.8444312
            ],
            [
              -4.5881148,
              33.8444078
            ],
            [
              -4.5881288,
              33.844385
            ],
            [
              -4.588218,
              33.8443755
            ],
            [
              -4.5882985,
              33.8443956
            ],
            [
              -4.588159,
              33.8430679
            ],
            [
              -4.5867428,
              33.8430278
            ],
            [
              -4.5866847,
              33.8436423
            ],
            [
              -4.5866517,
              33.8438108
            ],
            [
              -4.5865551,
              33.843969
            ],
            [
              -4.5864102,
              33.8441015
            ],
            [
              -4.5867428,
              33.8443065
            ],
            [
              -4.5866141,
              33.8447788
            ],
            [
              -4.586303,
              33.8450639
            ],
            [
              -4.5861528,
              33.8451798
            ],
            [
              -4.5862386,
              33.84526
            ],
            [
              -4.5858082,
              33.8455451
            ],
            [
              -4.585672,
              33.8453958
            ],
            [
              -4.5855413,
              33.8452499
            ],
            [
              -4.5852355,
              33.8454131
            ],
            [
              -4.5848292,
              33.8455796
            ],
            [
              -4.5847601,
              33.8454465
            ],
            [
              -4.5846011,
              33.8450873
            ],
            [
              -4.5843705,
              33.8452043
            ]
          ]
        ]
      }
    },
    {
      "type": "Feature",
      "properties": {
        "name": "S1",
        "collection": "sectors"
      },
      "geometry": {
        "type": "Polygon",
        "coordinates": [
          [
            [
              -4.5858529,
              33.8462577
            ],
            [
              -4.585693,
              33.8456395
            ],
            [
              -4.5858082,
              33.8455451
            ],
            [
              -4.5855413,
              33.8452499
            ],
            [
              -4.5848292,
              33.8455796
            ],
            [
              -4.5844038,
              33.8457503
            ],
            [
              -4.5843503,
              33.8462045
            ],
            [
              -4.5846507,
              33.8461688
            ],
            [
              -4.5858529,
              33.8462577
            ]
          ]
        ]
      }
    },
    {
      "type": "Feature",
      "properties": {
        "name": "S2",
        "collection": "sectors"
      },
      "geometry": {
        "type": "Polygon",
        "coordinates": [
          [
            [
              -4.586017,
              33.8468901
            ],
            [
              -4.5858529,
              33.8462577
            ],
            [
              -4.5846507,
              33.8461688
            ],
            [
              -4.5845823,
              33.8470288
            ],
            [
              -4.586017,
              33.8468901
            ]
          ]
        ]
      }
    },
    {
      "type": "Feature",
      "properties": {
        "name": "S3",
        "collection": "sectors"
      },
      "geometry": {
        "type": "Polygon",
        "coordinates": [
          [
            [
              -4.587518,
              33.8467715
            ],
            [
              -4.5845823,
              33.8470288
            ],
            [
              -4.5851282,
              33.8472582
            ],
            [
              -4.5851563,
              33.8473189
            ],
            [
              -4.585332,
              33.8473996
            ],
            [
              -4.5855305,
              33.8473824
            ],
            [
              -4.58567,
              33.8472916
            ],
            [
              -4.5858028,
              33.8476369
            ],
            [
              -4.587518,
              33.8467715
            ]
          ]
        ]
      }
    },
    {
      "type": "Feature",
      "properties": {
        "name": "S4",
        "collection": "sectors"
      },
      "geometry": {
        "type": "Polygon",
        "coordinates": [
          [
            [
              -4.587518,
              33.8467715
            ],
            [
              -4.5876081,
              33.8460082
            ],
            [
              -4.5858529,
              33.8462577
            ],
            [
              -4.586017,
              33.8468901
            ],
            [
              -4.587518,
              33.8467715
            ]
          ]
        ]
      }
    },
    {
      "type": "Feature",
      "properties": {
        "name": "S5",
        "collection": "sectors"
      },
      "geometry": {
        "type": "Polygon",
        "coordinates": [
          [
            [
              -4.5858529,
              33.8462577
            ],
            [
              -4.5876081,
              33.8460082
            ],
            [
              -4.5862386,
              33.84526
            ],
            [
              -4.585693,
              33.8456395
            ],
            [
              -4.5858529,
              33.8462577
            ]
          ]
        ]
      }
    },
    {
      "type": "Feature",
      "properties": {
        "name": "S6",
        "collection": "sectors"
      },
      "geometry": {
        "type": "Polygon",
        "coordinates": [
          [
            [
              -4.5876081,
              33.8460082
            ],
            [
              -4.5876923,
              33.8449525
            ],
            [
              -4.5866141,
              33.8447788
            ],
            [
              -4.5861528,
              33.8451798
            ],
            [
              -4.5876081,
              33.8460082
            ]
          ]
        ]
      }
    },
    {
      "type": "Feature",
      "properties": {
        "name": "S7",
        "collection": "sectors"
      },
      "geometry": {
        "type": "Polygon",
        "coordinates": [
          [
            [
              -4.5876923,
              33.8449525
            ],
            [
              -4.5878211,
              33.8444412
            ],
            [
              -4.5882985,
              33.8443956
            ],
            [
              -4.5882298,
              33.8438232
            ],
            [
              -4.5866517,
              33.8438108
            ],
            [
              -4.5864102,
              33.8441015
            ],
            [
              -4.5867428,
              33.8443065
            ],
            [
              -4.5866141,
              33.8447788
            ],
            [
              -4.5876923,
              33.8449525
            ]
          ]
        ]
      }
    },
    {
      "type": "Feature",
      "properties": {
        "name": "S8",
        "collection": "sectors"
      },
      "geometry": {
        "type": "Polygon",
        "coordinates": [
          [
            [
              -4.588159,
              33.8430679
            ],
            [
              -4.5867428,
              33.8430278
            ],
            [
              -4.5866517,
              33.8438108
            ],
            [
              -4.5882298,
              33.8438232
            ],
            [
              -4.588159,
              33.8430679
            ]
          ]
        ]
      }
    }
  ]
}