<?xml version='1.0' encoding='UTF-8'?>
<kml xmlns="http://www.opengis.net/kml/2.2">
  <Document>
    <name></name>
    <Placemark>
      <name>P1</name>
      <Polygon>
        <outerBoundaryIs>
          <LinearRing>
            <coordinates>-4.5843705,33.8452043,0 -4.5844248,33.8453557,0 -4.5844415,33.8454727,0 -4.5843932,33.8455986,0 -4.5843932,33.8459283,0 -4.5843503,33.8462045,0 -4.5846507,33.8461688,0 -4.5846454,33.8464384,0 -4.5845971,33.8466589,0 -4.5845823,33.8470288,0 -4.584758,33.8471223,0 -4.5849511,33.8471668,0 -4.5851282,33.8472582,0 -4.5851563,33.8473189,0 -4.585332,33.8473996,0 -4.5855305,33.8473824,0 -4.58567,33.8472916,0 -4.5858028,33.8476369,0 -4.587518,33.8467715,0 -4.5877835,33.8444312,0 -4.5881148,33.8444078,0 -4.5881288,33.844385,0 -4.588218,33.8443755,0 -4.5882985,33.8443956,0 -4.588159,33.8430679,0 -4.5867428,33.8430278,0 -4.5866847,33.8436423,0 -4.5866517,33.8438108,0 -4.5865551,33.843969,0 -4.5864102,33.8441015,0 -4.5867428,33.8443065,0 -4.5866141,33.8447788,0 -4.586303,33.8450639,0 -4.5861528,33.8451798,0 -4.5862386,33.84526,0 -4.5858082,33.8455451,0 -4.585672,33.8453958,0 -4.5855413,33.8452499,0 -4.5852355,33.8454131,0 -4.5848292,33.8455796,0 -4.5847601,33.8454465,0 -4.5846011,33.8450873,0 -4.5843705,33.8452043,0</coordinates>
          </LinearRing>
        </outerBoundaryIs>
      </Polygon>
    </Placemark>
    <Placemark>
      <name>S1</name>
      <Polygon>
        <outerBoundaryIs>
          <LinearRing>
            <coordinates>-4.5858529,33.8462577,0 -4.585693,33.8456395,0 -4.5858082,33.8455451,0 -4.5855413,33.8452499,0 -4.5848292,33.8455796,0 -4.5844038,33.8457503,0 -4.5843503,33.8462045,0 -4.5846507,33.8461688,0 -4.5858529,33.8462577,0</coordinates>
          </LinearRing>
        </outerBoundaryIs>
      </Polygon>
    </Placemark>
    <Placemark>
      <name>S2</name>
      <Polygon>
        <outerBoundaryIs>
          <LinearRing>
            <coordinates>-4.586017,33.8468901,0 -4.5858529,33.8462577,0 -4.5846507,33.8461688,0 -4.5845823,33.8470288,0 -4.586017,33.8468901,0</coordinates>
          </LinearRing>
        </outerBoundaryIs>
      </Polygon>
    </Placemark>
    <Placemark>
      <name>S3</name>
      <Polygon>
        <outerBoundaryIs>
          <LinearRing>
            <coordinates>-4.587518,33.8467715,0 -4.5845823,33.8470288,0 -4.5851282,33.8472582,0 -4.5851563,33.8473189,0 -4.585332,33.8473996,0 -4.5855305,33.8473824,0 -4.58567,33.8472916,0 -4.5858028,33.8476369,0 -4.587518,33.8467715,0</coordinates>
          </LinearRing>
        </outerBoundaryIs>
      </Polygon>
    </Placemark>
    <Placemark>
      <name>S4</name>
      <Polygon>
        <outerBoundaryIs>
          <LinearRing>
            <coordinates>-4.587518,33.8467715,0 -4.5876081,33.8460082,0 -4.5858529,33.8462577,0 -4.586017,33.8468901,0 -4.587518,33.8467715,0</coordinates>
          </LinearRing>
        </outerBoundaryIs>
      </Polygon>
    </Placemark>
    <Placemark>
      <name>S5</name>
      <Polygon>
        <outerBoundaryIs>
          <LinearRing>
            <coordinates>-4.5858529,33.8462577,0 -4.5876081,33.8460082,0 -4.5862386,33.84526,0 -4.585693,33.8456395,0 -4.5858529,33.8462577,0</coordinates>
          </LinearRing>
        </outerBoundaryIs>
      </Polygon>
    </Placemark>
    <Placemark>
      <name>S6</name>
      <Polygon>
        <outerBoundaryIs>
          <LinearRing>
            <coordinates>-4.5876081,33.8460082,0 -4.5876923,33.8449525,0 -4.5866141,33.8447788,0 -4.5861528,33.8451798,0 -4.5876081,33.8460082,0</coordinates>
          </LinearRing>
        </outerBoundaryIs>
      </Polygon>
    </Placemark>
    <Placemark>
      <name>S7</name>
      <Polygon>
        <outerBoundaryIs>
          <LinearRing>
            <coordinates>-4.5876923,33.8449525,0 -4.5878211,33.8444412,0 -4.5882985,33.8443956,0 -4.5882298,33.8438232,0 -4.5866517,33.8438108,0 -4.5864102,33.8441015,0 -4.5867428,33.8443065,0 -4.5866141,33.8447788,0 -4.5876923,33.8449525,0</coordinates>
          </LinearRing>
        </outerBoundaryIs>
      </Polygon>
    </Placemark>
    <Placemark>
      <name>S8</name>
      <Polygon>
        <outerBoundaryIs>
          <LinearRing>
            <coordinates>-4.588159,33.8430679,0 -4.5867428,33.8430278,0 -4.5866517,33.8438108,0 -4.5882298,33.8438232,0 -4.588159,33.8430679,0</coordinates>
          </LinearRing>
        </outerBoundaryIs>
      </Polygon>
    </Placemark>
  </Document>
</kml>
