{
  "type": "FeatureCollection",
  "features": [
    {
      "type": "Feature",
      "properties": {
        "name": "P1",
        "collection": "property"
      },
      "geometry": {
        "type": "Polygon",
        "coordinates": [
          [
            [
              -4.5843705,
              33.8452043
            ],
            [
              -4.5844248,
              33.8453557
            ],
            [
              -4.5844415,
              33.8454727
            ],
            [
              -4.5843932,
              33.8455986
            ],
            [
              -4.5843932,
              33.8459283
            ],
            [
              -4.5843503,
              33.8462045
            ],
            [
              -4.5846507,
              33.8461688
            ],
            [
              -4.5846454,
              33.8464384
            ],
            [
              -4.5845971,
              33.8466589
            ],
            [
              -4.5845823,
              33.8470288
            ],
            [
              -4.584758,
              33.8471223
            ],
            [
              -4.5849511,
              33.8471668
            ],
            [
              -4.5851282,
              33.8472582
            ],
            [
              -4.5851563,
              33.8473189
            ],
            [
              -4.585332,
              33.8473996
            ],
            [
              -4.5855305,
              33.8473824
            ],
            [
              -4.58567,
              33.8472916
            ],
            [
              -4.5858028,
              33.8476369
            ],
            [
              -4.587518,
              33.8467715
            ],
            [
              -4.5877835,
              33.8444312
            ],
            [
              -4.5881148,
              33.8444078
            ],
            [
              -4.5881288,
              33.844385
            ],
            [
              -4.588218,
              33.8443755
            ],
            [
              -4.5882985,
              33.8443956
            ],
            [
              -4.588159,
              33.8430679
            ],
            [
              -4.5867428,
              33.8430278
            ],
            [
              -4.5866847,
              33.8436423
            ],
            [
              -4.5866517,
              33.8438108
            ],
            [
              -4.5865551,
              33.843969
            ],
            [
              -4.5864102,
              33.8441015
            ],
            [
              -4.5867428,
              33.8443065
            ],
            [
              -4.5866141,
              33.8447788
            ],
            [
              -4.586303,
              33.8450639
            ],
            [
              -4.5861528,
              33.8451798
            ],
            [
              -4.5862386,
              33.84526
            ],
            [
              -4.5858082,
              33.8455451
            ],
            [
              -4.585672,
              33.8453958
            ],
            [
              -4.5855413,
              33.8452499
            ],
            [
              -4.5852355,
              33.8454131
            ],
            [
              -4.5848292,
              33.8455796
            ],
            [
              -4.5847601,
              33.8454465
            ],
            [
              -4.5846011,
              33.8450873
            ],
            [
              -4.5843705,
              33.8452043
            ]
          ]
        ]
      }
    },
    {
      "type": "Feature",
      "properties": {
        "name": "S1",
        "collection": "sectors"
      },
      "geometry": {
        "type": "Polygon",
        "coordinates": [
          [
            [
              -4.5858529,
              33.8462577
            ],
            [
              -4.585693,
              33.8456395
            ],
            [
              -4.5858082,
              33.8455451
            ],
            [
              -4.5855413,
              33.8452499
            ],
            [
              -4.5848292,
              33.8455796
            ],
            [
              -4.5844038,
              33.8457503
            ],
            [
              -4.5843503,
              33.8462045
            ],
            [
              -4.5846507,
              33.8461688
            ],
            [
              -4.5858529,
              33.8462577
            ]
          ]
        ]
      }
    },
    {
      "type": "Feature",
      "properties": {
        "name": "S2",
        "collection": "sectors"
      },
      "geometry": {
        "type": "Polygon",
        "coordinates": [
          [
            [
              -4.586017,
              33.8468901
            ],
            [
              -4.5858529,
              33.8462577
            ],
            [
              -4.5846507,
              33.8461688
            ],
            [
              -4.5845823,
              33.8470288
            ],
            [
              -4.586017,
              33.8468901
            ]
          ]
        ]
      }
    },
    {
      "type": "Feature",
      "properties": {
        "name": "S3",
        "collection": "sectors"
      },
      "geometry": {
        "type": "Polygon",
        "coordinates": [
          [
            [
              -4.587518,
              33.8467715
            ],
            [
              -4.5845823,
              33.8470288
            ],
            [
              -4.5851282,
              33.8472582
            ],
            [
              -4.5851563,
              33.8473189
            ],
            [
              -4.585332,
              33.8473996
            ],
            [
              -4.5855305,
              33.8473824
            ],
            [
              -4.58567,
              33.8472916
            ],
            [
              -4.5858028,
              33.8476369
            ],
            [
              -4.587518,
              33.8467715
            ]
          ]
        ]
      }
    },
    {
      "type": "Feature",
      "properties": {
        "name": "S4",
        "collection": "sectors"
      },
      "geometry": {
        "type": "Polygon",
        "coordinates": [
          [
            [
              -4.587518,
              33.8467715
            ],
            [
              -4.5876081,
              33.8460082
            ],
            [
              -4.5858529,
              33.8462577
            ],
            [
              -4.586017,
              33.8468901
            ],
            [
              -4.587518,
              33.8467715
            ]
          ]
        ]
      }
    },
    {
      "type": "Feature",
      "properties": {
        "name": "S5",
        "collection": "sectors"
      },
      "geometry": {
        "type": "Polygon",
        "coordinates": [
          [
            [
              -4.5858529,
              33.8462577
            ],
            [
              -4.5876081,
              33.8460082
            ],
            [
              -4.5862386,
              33.84526
            ],
            [
              -4.585693,
              33.8456395
            ],
            [
              -4.5858529,
              33.8462577
            ]
          ]
        ]
      }
    },
    {
      "type": "Feature",
      "properties": {
        "name": "S6",
        "collection": "sectors"
      },
      "geometry": {
        "type": "Polygon",
        "coordinates": [
          [
            [
              -4.5876081,
              33.8460082
            ],
            [
              -4.5876923,
              33.8449525
            ],
            [
              -4.5866141,
              33.8447788
            ],
            [
              -4.5861528,
              33.8451798
            ],
            [
              -4.5876081,
              33.8460082
            ]
          ]
        ]
      }
    },
    {
      "type": "Feature",
      "properties": {
        "name": "S7",
        "collection": "sectors"
      },
      "geometry": {
        "type": "Polygon",
        "coordinates": [
          [
            [
              -4.5876923,
              33.8449525
            ],
            [
              -4.5878211,
              33.8444412
            ],
            [
              -4.5882985,
              33.8443956
            ],
            [
              -4.5882298,
              33.8438232
            ],
            [
              -4.5866517,
              33.8438108
            ],
            [
              -4.5864102,
              33.8441015
            ],
            [
              -4.5867428,
              33.8443065
            ],
            [
              -4.5866141,
              33.8447788
            ],
            [
              -4.5876923,
              33.8449525
            ]
          ]
        ]
      }
    },
    {
      "type": "Feature",
      "properties": {
        "name": "S8",
        "collection": "sectors"
      },
      "geometry": {
        "type": "Polygon",
        "coordinates": [
          [
            [
              -4.588159,
              33.8430679
            ],
            [
              -4.5867428,
              33.8430278
            ],
            [
              -4.5866517,
              33.8438108
            ],
            [
              -4.5882298,
              33.8438232
            ],
            [
              -4.588159,
              33.8430679
            ]
          ]
        ]
      }
    },
    {
      "type": "Feature",
      "properties": {
        "name": "S1-Z1",
        "collection": "zones"
      },
      "geometry": {
        "type": "Polygon",
        "coordinates": [
          [
            [
              -4.5858529,
              33.8462577
            ],
            [
              -4.5846507,
              33.8461688
            ],
            [
              -4.5843503,
              33.8462045
            ],
            [
              -4.584383024397873,
              33.84592667903711
            ],
            [
              -4.585794272854523,
              33.84603103770273
            ],
            [
              -4.5858529,
              33.8462577
            ]
          ]
        ]
      }
    },
    {
      "type": "Feature",
      "properties": {
        "name": "S1-Z2",
        "collection": "zones"
      },
      "geometry": {
        "type": "Polygon",
        "coordinates": [
          [
            [
              -4.585794272854523,
              33.84603103770273
            ],
            [
              -4.584383024397873,
              33.84592667903711
            ],
            [
              -4.5844038,
              33.8457503
            ],
            [
              -4.584548168169416,
              33.84569236947222
            ],
            [
              -4.585729265637419,
              33.845779708987195
            ],
            [
              -4.585794272854523,
              33.84603103770273
            ]
          ]
        ]
      }
    },
    {
      "type": "Feature",
      "properties": {
        "name": "S1-Z3",
        "collection": "zones"
      },
      "geometry": {
        "type": "Polygon",
        "coordinates": [
          [
            [
              -4.5848292,
              33.8455796
            ],
            [
              -4.5855413,
              33.8452499
            ],
            [
              -4.5858082,
              33.8455451
            ],
            [
              -4.585693,
              33.8456395
            ],
            [
              -4.585729265637419,
              33.845779708987195
            ],
            [
              -4.584548168169416,
              33.84569236947222
            ],
            [
              -4.5848292,
              33.8455796
            ]
          ]
        ]
      }
    },
    {
      "type": "Feature",
      "properties": {
        "name": "S2-Z1",
        "collection": "zones"
      },
      "geometry": {
        "type": "Polygon",
        "coordinates": [
          [
            [
              -4.586017,
              33.8468901
            ],
            [
              -4.5845823,
              33.8470288
            ],
            [
              -4.584601158456595,
              33.84679169075042
            ],
            [
              -4.585957440275728,
              33.846660571848695
            ],
            [
              -4.586017,
              33.8468901
            ]
          ]
        ]
      }
    },
    {
      "type": "Feature",
      "properties": {
        "name": "S2-Z2",
        "collection": "zones"
      },
      "geometry": {
        "type": "Polygon",
        "coordinates": [
          [
            [
              -4.585957440275728,
              33.846660571848695
            ],
            [
              -4.584601158456595,
              33.84679169075042
            ],
            [
              -4.584621176380378,
              33.846540003404606
            ],
            [
              -4.5858942186639755,
              33.84641693170688
            ],
            [
              -4.585957440275728,
              33.846660571848695
            ]
          ]
        ]
      }
    },
    {
      "type": "Feature",
      "properties": {
        "name": "S2-Z3",
        "collection": "zones"
      },
      "geometry": {
        "type": "Polygon",
        "coordinates": [
          [
            [
              -4.5846507,
              33.8461688
            ],
            [
              -4.5858529,
              33.8462577
            ],
            [
              -4.5858942186639755,
              33.84641693170688
            ],
            [
              -4.584621176380378,
              33.846540003404606
            ],
            [
              -4.5846507,
              33.8461688
            ]
          ]
        ]
      }
    },
    {
      "type": "Feature",
      "properties": {
        "name": "S3-Z1",
        "collection": "zones"
      },
      "geometry": {
        "type": "Polygon",
        "coordinates": [
          [
            [
              -4.5845823,
              33.8470288
            ],
            [
              -4.587518,
              33.8467715
            ],
            [
              -4.587224612616137,
              33.84691952789296
            ],
            [
              -4.584823137648226,
              33.84713000563565
            ],
            [
              -4.5845823,
              33.8470288
            ]
          ]
        ]
      }
    },
    {
      "type": "Feature",
      "properties": {
        "name": "S3-Z2",
        "collection": "zones"
      },
      "geometry": {
        "type": "Polygon",
        "coordinates": [
          [
            [
              -4.5851282,
              33.8472582
            ],
            [
              -4.584823137648226,
              33.84713000563565
            ],
            [
              -4.587224612616137,
              33.84691952789296
            ],
            [
              -4.586843553766314,
              33.84711179021142
            ],
            [
              -4.585129949599236,
              33.847261979383404
            ],
            [
              -4.5851282,
              33.8472582
            ]
          ]
        ]
      }
    },
    {
      "type": "Feature",
      "properties": {
        "name": "S3-Z3",
        "collection": "zones"
      },
      "geometry": {
        "type": "Polygon",
        "coordinates": [
          [
            [
              -4.5858028,
              33.8476369
            ],
            [
              -4.58567,
              33.8472916
            ],
            [
              -4.5855305,
              33.8473824
            ],
            [
              -4.585332,
              33.8473996
            ],
            [
              -4.5851563,
              33.8473189
            ],
            [
              -4.585129949599236,
              33.847261979383404
            ],
            [
              -4.586843553766314,
              33.84711179021142
            ],
            [
              -4.5858028,
              33.8476369
            ]
          ]
        ]
      }
    },
    {
      "type": "Feature",
      "properties": {
        "name": "S4-Z1",
        "collection": "zones"
      },
      "geometry": {
        "type": "Polygon",
        "coordinates": [
          [
            [
              -4.5858529,
              33.8462577
            ],
            [
              -4.5876081,
              33.8460082
            ],
            [
              -4.587581414602388,
              33.84623427063259
            ],
            [
              -4.585908526394361,
              33.84647207009015
            ],
            [
              -4.5858529,
              33.8462577
            ]
          ]
        ]
      }
    },
    {
      "type": "Feature",
      "properties": {
        "name": "S4-Z2",
        "collection": "zones"
      },
      "geometry": {
        "type": "Polygon",
        "coordinates": [
          [
            [
              -4.587553346390376,
              33.84647205605135
            ],
            [
              -4.585967035300736,
              33.84669754865439
            ],
            [
              -4.585908526394361,
              33.84647207009015
            ],
            [
              -4.587581414602388,
              33.84623427063259
            ],
            [
              -4.587553346390376,
              33.84647205605135
            ]
          ]
        ]
      }
    },
    {
      "type": "Feature",
      "properties": {
        "name": "S4-Z3",
        "collection": "zones"
      },
      "geometry": {
        "type": "Polygon",
        "coordinates": [
          [
            [
              -4.587518,
              33.8467715
            ],
            [
              -4.586017,
              33.8468901
            ],
            [
              -4.585967035300736,
              33.84669754865439
            ],
            [
              -4.587553346390376,
              33.84647205605135
            ],
            [
              -4.587518,
              33.8467715
            ]
          ]
        ]
      }
    },
    {
      "type": "Feature",
      "properties": {
        "name": "S5-Z1",
        "collection": "zones"
      },
      "geometry": {
        "type": "Polygon",
        "coordinates": [
          [
            [
              -4.5876081,
              33.8460082
            ],
            [
              -4.5858529,
              33.8462577
            ],
            [
              -4.585800494883611,
              33.846055093102244
            ],
            [
              -4.587302998487014,
              33.84584151365315
            ],
            [
              -4.5876081,
              33.8460082
            ]
          ]
        ]
      }
    },
    {
      "type": "Feature",
      "properties": {
        "name": "S5-Z2",
        "collection": "zones"
      },
      "geometry": {
        "type": "Polygon",
        "coordinates": [
          [
            [
              -4.587302998487014,
              33.84584151365315
            ],
            [
              -4.585800494883611,
              33.846055093102244
            ],
            [
              -4.585737268155327,
              33.84581064805268
            ],
            [
              -4.586934893771485,
              33.845640406717656
            ],
            [
              -4.587302998487014,
              33.84584151365315
            ]
          ]
        ]
      }
    },
    {
      "type": "Feature",
      "properties": {
        "name": "S5-Z3",
        "collection": "zones"
      },
      "geometry": {
        "type": "Polygon",
        "coordinates": [
          [
            [
              -4.585693,
              33.8456395
            ],
            [
              -4.5862386,
              33.84526
            ],
            [
              -4.586934893771485,
              33.845640406717656
            ],
            [
              -4.585737268155327,
              33.84581064805268
            ],
            [
              -4.585693,
              33.8456395
            ]
          ]
        ]
      }
    },
    {
      "type": "Feature",
      "properties": {
        "name": "S6-Z1",
        "collection": "zones"
      },
      "geometry": {
        "type": "Polygon",
        "coordinates": [
          [
            [
              -4.5876081,
              33.8460082
            ],
            [
              -4.5861528,
              33.8451798
            ],
            [
              -4.586331202270538,
              33.84502471803493
            ],
            [
              -4.587627679556533,
              33.84576271142717
            ],
            [
              -4.5876081,
              33.8460082
            ]
          ]
        ]
      }
    },
    {
      "type": "Feature",
      "properties": {
        "name": "S6-Z2",
        "collection": "zones"
      },
      "geometry": {
        "type": "Polygon",
        "coordinates": [
          [
            [
              -4.587627679556533,
              33.84576271142717
            ],
            [
              -4.586331202270538,
              33.84502471803493
            ],
            [
              -4.586534758012943,
              33.844847770597895
            ],
            [
              -4.58765001969354,
              33.84548261068325
            ],
            [
              -4.587627679556533,
              33.84576271142717
            ]
          ]
        ]
      }
    },
    {
      "type": "Feature",
      "properties": {
        "name": "S6-Z3",
        "collection": "zones"
      },
      "geometry": {
        "type": "Polygon",
        "coordinates": [
          [
            [
              -4.5866141,
              33.8447788
            ],
            [
              -4.5876923,
              33.8449525
            ],
            [
              -4.58765001969354,
              33.84548261068325
            ],
            [
              -4.586534758012943,
              33.844847770597895
            ],
            [
              -4.5866141,
              33.8447788
            ]
          ]
        ]
      }
    },
    {
      "type": "Feature",
      "properties": {
        "name": "S7-Z1",
        "collection": "zones"
      },
      "geometry": {
        "type": "Polygon",
        "coordinates": [
          [
            [
              -4.5864102,
              33.8441015
            ],
            [
              -4.5866517,
              33.8438108
            ],
            [
              -4.5882298,
              33.8438232
            ],
            [
              -4.588265081761779,
              33.84411716332522
            ],
            [
              -4.586411988827333,
              33.84410260255443
            ],
            [
              -4.5864102,
              33.8441015
            ]
          ]
        ]
      }
    },
    {
      "type": "Feature",
      "properties": {
        "name": "S7-Z2",
        "collection": "zones"
      },
      "geometry": {
        "type": "Polygon",
        "coordinates": [
          [
            [
              -4.5882985,
              33.8443956
            ],
            [
              -4.5880159994343535,
              33.84442258371553
            ],
            [
              -4.586713955493349,
              33.844412352839875
            ],
            [
              -4.5867428,
              33.8443065
            ],
            [
              -4.586411988827333,
              33.84410260255443
            ],
            [
              -4.588265081761779,
              33.84411716332522
            ],
            [
              -4.5882985,
              33.8443956
            ]
          ]
        ]
      }
    },
    {
      "type": "Feature",
      "properties": {
        "name": "S7-Z3",
        "collection": "zones"
      },
      "geometry": {
        "type": "Polygon",
        "coordinates": [
          [
            [
              -4.5878211,
              33.8444412
            ],
            [
              -4.5876923,
              33.8449525
            ],
            [
              -4.5866141,
              33.8447788
            ],
            [
              -4.586713955493349,
              33.844412352839875
            ],
            [
              -4.5880159994343535,
              33.84442258371553
            ],
            [
              -4.5878211,
              33.8444412
            ]
          ]
        ]
      }
    },
    {
      "type": "Feature",
      "properties": {
        "name": "S8-Z1",
        "collection": "zones"
      },
      "geometry": {
        "type": "Polygon",
        "coordinates": [
          [
            [
              -4.5882298,
              33.8438232
            ],
            [
              -4.5866517,
              33.8438108
            ],
            [
              -4.5866804534321775,
              33.84356366567074
            ],
            [
              -4.5882065959549685,
              33.84357565741226
            ],
            [
              -4.5882298,
              33.8438232
            ]
          ]
        ]
      }
    },
    {
      "type": "Feature",
      "properties": {
        "name": "S8-Z2",
        "collection": "zones"
      },
      "geometry": {
        "type": "Polygon",
        "coordinates": [
          [
            [
              -4.5867102209058785,
              33.84330781570469
            ],
            [
              -4.588182573577537,
              33.84331938478975
            ],
            [
              -4.5882065959549685,
              33.84357565741226
            ],
            [
              -4.5866804534321775,
              33.84356366567074
            ],
            [
              -4.5867102209058785,
              33.84330781570469
            ]
          ]
        ]
      }
    },
    {
      "type": "Feature",
      "properties": {
        "name": "S8-Z3",
        "collection": "zones"
      },
      "geometry": {
        "type": "Polygon",
        "coordinates": [
          [
            [
              -4.5867428,
              33.8430278
            ],
            [
              -4.588159,
              33.8430679
            ],
            [
              -4.588182573577537,
              33.84331938478975
            ],
            [
              -4.5867102209058785,
              33.84330781570469
            ],
            [
              -4.5867428,
              33.8430278
            ]
          ]
        ]
      }
    }
  ]
}